STARLETTE               
1 07646U 75010A   19068.49765692 -.00000122  00000-0  15177-4 0  9999
2 07646  49.8244 150.5678 0205721 286.9370  70.9065 13.82305750227035
LAGEOS 1                
1 08820U 76039A   19068.56755034  .00000003  00000-0  00000+0 0  9994
2 08820 109.8624 349.3439 0044487 151.3155 351.7253  6.38665036743893
AJISAI (EGS)            
1 16908U 86061A   19068.86284953 -.00000110  00000-0 -87520-4 0  9994
2 16908  50.0109  35.3091 0011324 259.4747 136.4603 12.44489273149978
LAGEOS 2                
1 22195U 92070B   19067.62579366 -.00000009  00000-0  00000-0 0  9994
2 22195  52.6478 146.2114 0138836 105.2791 179.5337  6.47294004623581
STELLA                  
1 22824U 93061B   19068.20627316 -.00000048  00000-0 -60345-6 0  9996
2 22824  98.9119  43.6805 0006828  26.7297 161.4821 14.27376203325884
LARES                   
1 38077U 12006A   19068.41551440 -.00000069  00000-0 -18669-3 0  9992
2 38077  69.4932 150.2426 0007702  15.7362 344.3896 12.54930454323844
